[{"OBJECT_NAME":"IRIDIUM 123","OBJECT_ID":"2017-039B","EPOCH":"2026-03-09T22:21:18.884448","MEAN_MOTION":14.34218976,"ECCENTRICITY":0.00019684,"INCLINATION":86.3973,"RA_OF_ASC_NODE":35.1027,"ARG_OF_PERICENTER":83.6618,"MEAN_ANOMALY":276.4802,"EPHEMERIS_TYPE":0,"CLASSIFICATION_TYPE":"U","NORAD_CAT_ID":42804,"ELEMENT_SET_NO":999,"REV_AT_EPOCH":45572,"BSTAR":0.00013835042,"MEAN_MOTION_DOT":4.07e-6,"MEAN_MOTION_DDOT":0},{"OBJECT_NAME":"COSMOS 540","OBJECT_ID":"1972-104A","EPOCH":"2026-03-09T22:18:09.881856","MEAN_MOTION":14.37475414,"ECCENTRICITY":0.00187968,"INCLINATION":74.0789,"RA_OF_ASC_NODE":281.8264,"ARG_OF_PERICENTER":272.7333,"MEAN_ANOMALY":87.1669,"EPHEMERIS_TYPE":0,"CLASSIFICATION_TYPE":"U","NORAD_CAT_ID":6323,"ELEMENT_SET_NO":999,"REV_AT_EPOCH":78475,"BSTAR":5.5602782e-5,"MEAN_MOTION_DOT":1.41e-6,"MEAN_MOTION_DDOT":0}]
